OBJECT_NAME,OBJECT_ID,EPOCH,MEAN_MOTION,ECCENTRICITY,INCLINATION,RA_OF_ASC_NODE,ARG_OF_PERICENTER,MEAN_ANOMALY,EPHEMERIS_TYPE,CLASSIFICATION_TYPE,NORAD_CAT_ID,ELEMENT_SET_NO,REV_AT_EPOCH,BSTAR,MEAN_MOTION_DOT,MEAN_MOTION_DDOT
STARLINK-31271,2024-017B,2026-06-13T13:50:00.744864,15.30178203,.00014416,53.1582,119.1674,72.4985,287.6173,0,U,58827,999,13473,.66037697E-3,.19237E-3,0
STARLINK-31222,2024-017C,2026-06-13T14:08:05.536608,15.30186473,.00013952,53.1601,118.5335,97.2365,262.8795,0,U,58828,999,13474,-.12702303E-4,-.735E-5,0
STARLINK-31258,2024-017D,2026-06-13T03:56:49.560864,15.30199665,.00013011,53.1610,120.8640,93.2826,266.8324,0,U,58829,999,13467,.36746911E-4,.729E-5,0
STARLINK-31253,2024-017E,2026-06-13T04:01:21.331200,15.31712502,.00011783,53.1613,120.1784,106.0253,254.0878,0,U,58830,999,13468,.3112321E-4,.601E-5,0
STARLINK-31232,2024-017F,2026-06-13T03:47:54.886560,15.31710825,.00011935,53.1598,120.1164,84.2875,275.8262,0,U,58831,999,13468,.12779337E-4,.32E-6,0
STARLINK-31263,2024-017G,2026-06-13T03:05:07.580544,15.34411540,.00012805,53.1601,109.9920,81.9285,278.1863,0,U,58832,999,13493,.21696377E-3,.6964E-4,0
STARLINK-31171,2024-017J,2026-06-13T12:24:10.065024,15.30177148,.00007592,53.1589,95.6584,101.7098,258.3988,0,U,58834,999,13505,-.18539919E-4,-.907E-5,0
STARLINK-31246,2024-017K,2026-06-13T03:43:06.716640,15.30216447,.00012549,53.1598,120.8035,87.8088,272.3057,0,U,58835,999,13467,.13104846E-3,.3526E-4,0
STARLINK-31251,2024-017L,2026-06-13T03:53:46.507776,15.30201943,.00013698,53.1608,120.8505,90.5895,269.5263,0,U,58836,999,13478,.43092835E-4,.917E-5,0
STARLINK-31249,2024-017N,2026-06-13T04:02:53.742912,15.30180471,.00014728,53.1601,120.8893,106.7676,253.3487,0,U,58838,999,13467,.16232643E-3,.4448E-4,0
STARLINK-31250,2024-017P,2026-06-13T13:55:37.674624,15.34391872,.0001429,53.1614,107.8353,79.1979,280.9184,0,U,58839,999,13484,.23426876E-4,.415E-5,0
STARLINK-31248,2024-017Q,2026-06-13T14:26:09.291552,15.34394785,.0001223,53.1595,129.9578,92.7788,267.3354,0,U,58840,999,13469,.21797978E-4,.36E-5,0
STARLINK-31236,2024-017R,2026-06-13T13:36:21.115584,15.30195429,.00013165,53.1598,119.1084,72.2020,287.9125,0,U,58841,999,13473,-.36963891E-4,-.1454E-4,0
STARLINK-31228,2024-017S,2026-06-13T04:07:27.045984,15.30201933,.00013484,53.1610,120.9099,100.3970,259.7183,0,U,58842,999,13467,.42542275E-4,.901E-5,0
STARLINK-31280,2024-017T,2026-06-13T13:40:53.794848,15.30194724,.00014192,53.1601,119.1277,102.4025,257.7135,0,U,58843,999,13473,.8406109E-5,-.11E-5,0
STARLINK-31269,2024-017U,2026-06-13T09:43:51.292128,15.30196006,.00011969,53.1593,209.8556,73.3724,286.7409,0,U,58844,999,13342,.39394648E-4,.808E-5,0
STARLINK-31264,2024-017V,2026-06-13T10:04:58.317888,15.30195870,.00012378,53.1600,209.2449,101.0101,259.1039,0,U,58845,999,13343,.34133151E-4,.652E-5,0
STARLINK-31273,2024-017W,2026-06-13T04:21:08.050752,15.30195173,.00014998,53.1604,120.9684,101.4778,258.6392,0,U,58846,999,13467,.1961188E-4,.221E-5,0
STARLINK-31262,2024-017X,2026-06-13T10:15:34.081056,15.30225275,.00012906,53.1596,209.2866,78.2608,281.8537,0,U,58847,999,13343,.15820826E-3,.4333E-4,0
STARLINK-31238,2024-019A,2026-06-13T00:20:55.253760,15.27580716,.00012253,43.0017,70.3555,263.0782,96.9930,0,U,58853,999,13366,.3281897E-4,.641E-5,0
STARLINK-31158,2024-019B,2026-06-13T00:30:10.427328,15.27579724,.00012208,42.9980,70.4036,273.3949,86.6763,0,U,58854,999,13366,.3135852E-4,.601E-5,0
STARLINK-31237,2024-019C,2026-06-13T00:13:30.138240,15.27595303,.00014307,43.0041,70.3395,259.4817,100.5874,0,U,58855,999,13366,.10839511E-3,.2723E-4,0
STARLINK-31244,2024-019D,2026-06-13T10:02:30.528960,15.27585389,.00014861,43.0036,68.2331,275.5701,84.4981,0,U,58856,999,13372,.33524441E-4,.661E-5,0
STARLINK-31226,2024-019F,2026-06-13T10:24:43.984224,15.27633128,.00011021,43.0089,68.3489,287.3075,72.7656,0,U,58858,999,13372,-.61452607E-3,-.17161E-3,0
STARLINK-31197,2024-019G,2026-06-12T11:09:01.900512,15.27577653,.00003408,42.9897,73.9774,296.7107,63.3710,0,U,58859,999,13357,-.23853196E-4,-.918E-5,0
STARLINK-31213,2024-019H,2026-06-13T10:04:21.908928,15.27579965,.00012099,43.0058,68.2411,268.4639,91.6074,0,U,58860,999,13372,.28552628E-4,.524E-5,0
STARLINK-31199,2024-019J,2026-06-13T09:58:48.499104,15.27594780,.00015676,43.0070,68.2111,263.2817,96.7856,0,U,58861,999,13372,.38317157E-4,.793E-5,0
STARLINK-31200,2024-019K,2026-06-12T10:28:20.468928,15.27540337,.00008807,43.0059,73.7609,257.7758,102.2995,0,U,58862,999,13357,.33220548E-3,.8879E-4,0
STARLINK-31149,2024-019L,2026-06-12T11:23:37.027104,15.27580435,.00013925,43.0043,73.1934,267.1652,92.9041,0,U,58863,999,13358,.44735144E-4,.969E-5,0
STARLINK-31242,2024-019M,2026-06-13T10:09:55.311840,15.27572568,.00010368,43.0044,68.2708,277.4576,82.6158,0,U,58864,999,13372,-.21561166E-4,-.855E-5,0
