STARLINK-31271          
1 58827U 24017B   26164.57639751  .00019237  00000+0  66038-3 0  9993
2 58827  53.1582 119.1674 0001441  72.4985 287.6173 15.30178203134732
STARLINK-31222          
1 58828U 24017C   26164.58895297 -.00000735  00000+0 -12702-4 0  9999
2 58828  53.1601 118.5335 0001395  97.2365 262.8795 15.30186473134741
STARLINK-31258          
1 58829U 24017D   26164.16446251  .00000729  00000+0  36747-4 0  9992
2 58829  53.1610 120.8640 0001301  93.2826 266.8324 15.30199665134673
STARLINK-31253          
1 58830U 24017E   26164.16760800  .00000601  00000+0  31123-4 0  9995
2 58830  53.1613 120.1784 0001178 106.0253 254.0878 15.31712502134685
STARLINK-31232          
1 58831U 24017F   26164.15827415  .00000032  00000+0  12779-4 0  9995
2 58831  53.1598 120.1164 0001193  84.2875 275.8262 15.31710825134688
STARLINK-31263          
1 58832U 24017G   26164.12855996  .00006964  00000+0  21696-3 0  9995
2 58832  53.1601 109.9920 0001280  81.9285 278.1863 15.34411540134931
STARLINK-31171          
1 58834U 24017J   26164.51678316 -.00000907  00000+0 -18540-4 0  9997
2 58834  53.1589  95.6584 0000759 101.7098 258.3988 15.30177148135059
STARLINK-31246          
1 58835U 24017K   26164.15493885  .00003526  00000+0  13105-3 0  9993
2 58835  53.1598 120.8035 0001254  87.8088 272.3057 15.30216447134672
STARLINK-31251          
1 58836U 24017L   26164.16234384  .00000917  00000+0  43093-4 0  9993
2 58836  53.1608 120.8505 0001369  90.5895 269.5263 15.30201943134785
STARLINK-31249          
1 58838U 24017N   26164.16867758  .00004448  00000+0  16233-3 0  9990
2 58838  53.1601 120.8893 0001472 106.7676 253.3487 15.30180471134671
STARLINK-31250          
1 58839U 24017P   26164.58029716  .00000415  00000+0  23427-4 0  9995
2 58839  53.1614 107.8353 0001429  79.1979 280.9184 15.34391872134845
STARLINK-31248          
1 58840U 24017Q   26164.60149643  .00000360  00000+0  21798-4 0  9990
2 58840  53.1595 129.9578 0001223  92.7788 267.3354 15.34394785134697
STARLINK-31236          
1 58841U 24017R   26164.56691106 -.00001454  00000+0 -36964-4 0  9990
2 58841  53.1598 119.1084 0001316  72.2020 287.9125 15.30195429134738
STARLINK-31228          
1 58842U 24017S   26164.17184081  .00000901  00000+0  42542-4 0  9990
2 58842  53.1610 120.9099 0001348 100.3970 259.7183 15.30201933134674
STARLINK-31280          
1 58843U 24017T   26164.57006707 -.00000110  00000+0  84061-5 0  9999
2 58843  53.1601 119.1277 0001419 102.4025 257.7135 15.30194724134737
STARLINK-31269          
1 58844U 24017U   26164.40545477  .00000808  00000+0  39395-4 0  9996
2 58844  53.1593 209.8556 0001196  73.3724 286.7409 15.30196006133425
STARLINK-31264          
1 58845U 24017V   26164.42011942  .00000652  00000+0  34133-4 0  9996
2 58845  53.1600 209.2449 0001237 101.0101 259.1039 15.30195870133436
STARLINK-31273          
1 58846U 24017W   26164.18134318  .00000221  00000+0  19612-4 0  9990
2 58846  53.1604 120.9684 0001499 101.4778 258.6392 15.30195173134674
STARLINK-31262          
1 58847U 24017X   26164.42747779  .00004333  00000+0  15821-3 0  9994
2 58847  53.1596 209.2866 0001290  78.2608 281.8537 15.30225275133439
STARLINK-31238          
1 58853U 24019A   26164.01452840  .00000641  00000+0  32819-4 0  9995
2 58853  43.0017  70.3555 0001225 263.0782  96.9930 15.27580716133666
STARLINK-31158          
1 58854U 24019B   26164.02095402  .00000601  00000+0  31359-4 0  9998
2 58854  42.9980  70.4036 0001220 273.3949  86.6763 15.27579724133660
STARLINK-31237          
1 58855U 24019C   26164.00937660  .00002723  00000+0  10840-3 0  9996
2 58855  43.0041  70.3395 0001430 259.4817 100.5874 15.27595303133660
STARLINK-31244          
1 58856U 24019D   26164.41840890  .00000661  00000+0  33524-4 0  9994
2 58856  43.0036  68.2331 0001486 275.5701  84.4981 15.27585389133722
STARLINK-31226          
1 58858U 24019F   26164.43384241 -.00017161  00000+0 -61453-3 0  9997
2 58858  43.0089  68.3489 0001102 287.3075  72.7656 15.27633128133721
STARLINK-31197          
1 58859U 24019G   26163.46460533 -.00000918  00000+0 -23853-4 0  9994
2 58859  42.9897  73.9774 0000340 296.7107  63.3710 15.27577653133579
STARLINK-31213          
1 58860U 24019H   26164.41969802  .00000524  00000+0  28553-4 0  9998
2 58860  43.0058  68.2411 0001209 268.4639  91.6074 15.27579965133720
STARLINK-31199          
1 58861U 24019J   26164.41583911  .00000793  00000+0  38317-4 0  9999
2 58861  43.0070  68.2111 0001567 263.2817  96.7856 15.27594780133726
STARLINK-31200          
1 58862U 24019K   26163.43634802  .00008879  00000+0  33221-3 0  9998
2 58862  43.0059  73.7609 0000880 257.7758 102.2995 15.27540337133575
STARLINK-31149          
1 58863U 24019L   26163.47473411  .00000969  00000+0  44735-4 0  9995
2 58863  43.0043  73.1934 0001392 267.1652  92.9041 15.27580435133582
STARLINK-31242          
1 58864U 24019M   26164.42355685 -.00000855  00000+0 -21561-4 0  9992
2 58864  43.0044  68.2708 0001036 277.4576  82.6158 15.27572568133721
